NORAD_CAT_ID,OBJECT_NAME,OBJECT_TYPE,EPOCH,MEAN_MOTION,ECCENTRICITY,INCLINATION,RA_OF_ASC_NODE,ARG_OF_PERICENTER,MEAN_ANOMALY,BSTAR,MEAN_MOTION_DOT,MEAN_MOTION_DDOT,TLE_LINE0,TLE_LINE1,TLE_LINE2,SEMIMAJOR_AXIS,PERIOD,APOGEE,PERIGEE,DECAYED
53591.0,STARLINK-4674,PAYLOAD,2022-11-18 22:00:00,15.08843735,0.000143,53.2153,261.6911,84.7328,169.9865,-0.00017791,-3.119e-05,0.0,0 STARLINK-4674,1 53591U 22104D   22322.91667824 -.00003119  00000-0 -17791-3 0  9990,2 53591  53.2153 261.6911 0001430  84.7328 169.9865 15.08843735  1302,6917.869000000002,95.437,540.7230000000002,538.745,0.0
53591.0,STARLINK-4674,PAYLOAD,2022-11-19 14:00:01,15.08853316,0.0001393,53.215,258.6979,82.7213,195.2052,0.0007885,0.00012288,0.0,0 STARLINK-4674,1 53591U 22104D   22323.58334491  .00012288  00000-0  78850-3 0  9993,2 53591  53.2150 258.6979 0001393  82.7213 195.2052 15.08853316  1304,6917.84,95.437,540.668,538.741,0.0
53591.0,STARLINK-4674,PAYLOAD,2022-11-19 16:00:00,15.08835053,0.0001377,53.2148,258.3235,85.8793,284.9575,0.0035422,0.00056531,0.0,0 STARLINK-4674,1 53591U 22104D   22323.66667824  .00056531  00000-0  35422-2 0  9997,2 53591  53.2148 258.3235 0001377  85.8793 284.9575 15.08835053 12858,6917.896,95.438,540.7130000000002,538.808,0.0
53591.0,STARLINK-4674,PAYLOAD,2022-11-19 22:00:00,15.08893092,0.0001395999999999,53.215,257.2017,85.8848,203.6485,-0.0030943,-0.00049268,0.0,0 STARLINK-4674,1 53591U 22104D   22323.91667824 -.00049268  00000-0 -30943-2 0  9999,2 53591  53.2150 257.2017 0001396  85.8848 203.6485 15.08893092  1302,6917.718000000003,95.434,540.549,538.617,0.0
53591.0,STARLINK-4674,PAYLOAD,2022-11-20 06:00:00,15.08840266,0.0001344,53.2148,255.7066,74.862,226.3153,0.00060931,9.423e-05,0.0,0 STARLINK-4674,1 53591U 22104D   22324.25001157  .00009423  00000-0  60931-3 0  9996,2 53591  53.2148 255.7066 0001344  74.8620 226.3153 15.08840266 12935,6917.88,95.438,540.674,538.815,0.0
53591.0,STARLINK-4674,PAYLOAD,2022-11-20 14:00:01,15.08820838,0.0001207,53.2148,254.2084,82.1675,230.6167,0.0010605,0.00016621,0.0,0 STARLINK-4674,1 53591U 22104D   22324.58334491  .00016621  00000-0  10605-2 0  9992,2 53591  53.2148 254.2084 0001207  82.1675 230.6167 15.08820838  1304,6917.939,95.439,540.639,538.969,0.0
53591.0,STARLINK-4674,PAYLOAD,2022-11-20 22:00:00,15.08860919,0.0001218,53.2149,252.7123,83.9832,240.3737,-0.0024145,-0.00038531,0.0,0 STARLINK-4674,1 53591U 22104D   22324.91667824 -.00038531  00000-0 -24145-2 0  9998,2 53591  53.2149 252.7123 0001218  83.9832 240.3737 15.08860919  1303,6917.816,95.436,540.524,538.839,0.0
53591.0,STARLINK-4674,PAYLOAD,2022-11-21 06:00:00,15.0880549,0.0001211,53.2147,251.2172,71.2292,264.7374,0.0026387,0.00041917,0.0,0 STARLINK-4674,1 53591U 22104D   22325.25001157  .00041917  00000-0  26387-2 0  9997,2 53591  53.2147 251.2172 0001211  71.2292 264.7374 15.08805490 13091,6917.986,95.44,540.689,539.013,0.0
53591.0,STARLINK-4674,PAYLOAD,2022-11-21 14:00:01,15.08817866,0.0001129,53.2149,249.719,80.0246,267.5201,0.0018981,0.00030031,0.0,0 STARLINK-4674,1 53591U 22104D   22325.58334491  .00030031  00000-0  18981-2 0  9999,2 53591  53.2149 249.7190 0001129  80.0246 267.5201 15.08817866  1301,6917.948,95.439,540.594,539.0319999999998,0.0
53591.0,STARLINK-4674,PAYLOAD,2022-11-21 22:00:00,15.0885624,0.0001213,53.2151,248.2231,79.2102,279.9091,-0.00093672,-0.00015171,0.0,0 STARLINK-4674,1 53591U 22104D   22325.91667824 -.00015171  00000-0 -93672-3 0  9996,2 53591  53.2151 248.2231 0001213  79.2102 279.9091 15.08856240 13192,6917.831,95.437,540.535,538.857,0.0
53591.0,STARLINK-4674,PAYLOAD,2022-11-22 00:00:00,15.0885479,0.0001249,53.2149,247.8495,75.6201,16.402,-0.0010394,-0.00016798,0.0,0 STARLINK-4674,1 53591U 22104D   22326.00001157 -.00016798  00000-0 -10394-2 0  9993,2 53591  53.2149 247.8495 0001249  75.6201  16.4020 15.08854790  1309,6917.835,95.437,540.564,538.836,0.0
53591.0,STARLINK-4674,PAYLOAD,2022-11-22 14:00:01,15.08824949,0.0001286999999999,53.2152,245.2296,78.9557,303.4562,0.0012913,0.00020314,0.0,0 STARLINK-4674,1 53591U 22104D   22326.58335648  .00020314  00000-0  12913-2 0  9997,2 53591  53.2152 245.2296 0001287  78.9557 303.4562 15.08824949  1309,6917.926,95.439,540.682,538.901,0.0
53591.0,STARLINK-4674,PAYLOAD,2022-11-22 22:00:00,15.08867163,0.0001375999999999,53.2154,243.7339,76.9436,316.9814,-0.0037935,-0.00060201,0.0,0 STARLINK-4674,1 53591U 22104D   22326.91667824 -.00060201  00000-0 -37935-2 0  9990,2 53591  53.2154 243.7339 0001376  76.9436 316.9814 15.08867163 13346,6917.797,95.436,540.614,538.71,0.0
53591.0,STARLINK-4674,PAYLOAD,2022-11-23 14:00:01,15.08811853,0.0001273,53.2156,240.7405,76.8983,340.2143,0.0026538,0.00042167,0.0,0 STARLINK-4674,1 53591U 22104D   22327.58334491  .00042167  00000-0  26538-2 0  9991,2 53591  53.2156 240.7405 0001273  76.8983 340.2143 15.08811853 13442,6917.965999999999,95.439,540.712,538.951,0.0
53591.0,STARLINK-4674,PAYLOAD,2022-11-23 22:00:00,15.08856208,0.0001395,53.2157,239.245,75.0117,353.6746,-0.0013325,-0.00021441,0.0,0 STARLINK-4674,1 53591U 22104D   22327.91667824 -.00021441  00000-0 -13325-2 0  9991,2 53591  53.2157 239.2450 0001395  75.0117 353.6746 15.08856208  1303,6917.831,95.437,540.661,538.731,0.0
53591.0,STARLINK-4674,PAYLOAD,2022-11-24 08:00:01,15.08861092,0.0001482,53.2154,237.375,69.5047,103.6837,-0.0028418,-0.00045257,0.0,0 STARLINK-4674,1 53591U 22104D   22328.33334491 -.00045257  00000-0 -28418-2 0  9999,2 53591  53.2154 237.3750 0001482  69.5047 103.6837 15.08861092 13550,6917.816,95.436,540.706,538.656,0.0
53591.0,STARLINK-4674,PAYLOAD,2022-11-24 14:00:01,15.08809171,0.0001443,53.2157,236.2515,78.157,13.7445,0.0028177,0.00044803,0.0,0 STARLINK-4674,1 53591U 22104D   22328.58334491  .00044803  00000-0  28177-2 0  9992,2 53591  53.2157 236.2515 0001443  78.1570  13.7445 15.08809171  1300,6917.975,95.44,540.8380000000002,538.841,0.0
53591.0,STARLINK-4674,PAYLOAD,2022-11-24 22:00:00,15.08853939,0.0001531999999999,53.2157,234.7561,75.7132,27.7623,-0.0013966,-0.00022455,0.0,0 STARLINK-4674,1 53591U 22104D   22328.91667824 -.00022455  00000-0 -13966-2 0  9999,2 53591  53.2157 234.7561 0001532  75.7132  27.7623 15.08853939 13644,6917.8380000000025,95.437,540.763,538.643,0.0
53591.0,STARLINK-4674,PAYLOAD,2022-11-25 14:00:01,15.08809613,0.0001343,53.2153,231.7625,78.5196,48.1717,0.0031229,0.00049722,0.0,0 STARLINK-4674,1 53591U 22104D   22329.58334491  .00049722  00000-0  31229-2 0  9990,2 53591  53.2153 231.7625 0001343  78.5196  48.1717 15.08809613  1300,6917.973000000001,95.439,540.7669999999998,538.909,0.0
53591.0,STARLINK-4674,PAYLOAD,2022-11-25 22:00:00,15.08857233,0.0001437,53.2152,230.2672,75.7841,62.4872,-0.00098813,-0.00015987,0.0,0 STARLINK-4674,1 53591U 22104D   22329.91667824 -.00015987  00000-0 -98813-3 0  9997,2 53591  53.2152 230.2672 0001437  75.7841  62.4872 15.08857233 13793,6917.828,95.436,540.687,538.6990000000002,0.0
53591.0,STARLINK-4674,PAYLOAD,2022-11-26 00:00:00,15.08848799,0.0001475,53.2151,229.8936,73.0947,158.0813,2.618e-05,1.29e-06,0.0,0 STARLINK-4674,1 53591U 22104D   22330.00001157  .00000129  00000-0  26180-4 0  9999,2 53591  53.2151 229.8936 0001475  73.0947 158.0813 15.08848799  1307,6917.853,95.437,540.739,538.698,0.0
53591.0,STARLINK-4674,PAYLOAD,2022-11-26 14:00:01,15.08817178,0.0001457,53.2145,227.2734,80.7074,80.7982,0.0029584,0.0004708,0.0,0 STARLINK-4674,1 53591U 22104D   22330.58334491  .00047080  00000-0  29584-2 0  9998,2 53591  53.2145 227.2734 0001457  80.7074  80.7982 15.08817178  1309,6917.95,95.439,540.823,538.807,0.0
53591.0,STARLINK-4674,PAYLOAD,2022-11-26 22:00:00,15.08854642,0.0001482,53.2145,225.7782,77.211,95.8838,-0.003265,-0.00051897,0.0,0 STARLINK-4674,1 53591U 22104D   22330.91667824 -.00051897  00000-0 -32650-2 0  9995,2 53591  53.2145 225.7782 0001482  77.2110  95.8838 15.08854642 13942,6917.8359999999975,95.437,540.726,538.675,0.0
53591.0,STARLINK-4674,PAYLOAD,2022-11-27 14:00:01,15.08788728,0.000131,53.2151,222.7841,81.1179,115.1533,0.0029556,0.00046998,0.0,0 STARLINK-4674,1 53591U 22104D   22331.58334491  .00046998  00000-0  29556-2 0  9995,2 53591  53.2151 222.7841 0001310  81.1179 115.1533 15.08788728  1307,6918.0369999999975,95.441,540.808,538.996,0.0
53591.0,STARLINK-4674,PAYLOAD,2022-11-27 22:00:00,15.08825022,0.0001393,53.2157,221.2892,75.9491,131.875,-0.00098957,-0.00015996,0.0,0 STARLINK-4674,1 53591U 22104D   22331.91667824 -.00015996  00000-0 -98957-3 0  9999,2 53591  53.2157 221.2892 0001393  75.9491 131.8750 15.08825022  1307,6917.926,95.439,540.755,538.828,0.0
53591.0,STARLINK-4674,PAYLOAD,2022-11-28 06:00:00,15.08829893,0.0001396999999999,53.2152,219.793,71.4256,147.968,0.00025691,3.802e-05,0.0,0 STARLINK-4674,1 53591U 22104D   22332.25001157  .00003802  00000-0  25691-3 0  9994,2 53591  53.2152 219.7930 0001397  71.4256 147.9680 15.08829893 14147,6917.911,95.438,540.743,538.81,0.0
53591.0,STARLINK-4674,PAYLOAD,2022-11-28 22:00:01,15.08848142,0.0001469,53.2153,216.8,75.3036,167.3289,-0.00073353,-0.00011946,0.0,0 STARLINK-4674,1 53591U 22104D   22332.91668981 -.00011946  00000-0 -73353-3 0  9999,2 53591  53.2153 216.8000 0001469  75.3036 167.3289 15.08848142  1306,6917.856,95.437,540.737,538.7040000000002,0.0
53591.0,STARLINK-4674,PAYLOAD,2022-11-29 14:00:01,15.08806374,0.0001568,53.2153,213.8055,80.8781,184.9672,0.0029703,0.00047258,0.0,0 STARLINK-4674,1 53591U 22104D   22333.58335648  .00047258  00000-0  29703-2 0  9996,2 53591  53.2153 213.8055 0001568  80.8781 184.9672 15.08806374 14341,6917.983,95.44,540.933,538.763,0.0
53591.0,STARLINK-4674,PAYLOAD,2022-11-29 22:00:00,15.08840011,0.0001672,53.2155,212.3108,74.9411,202.4183,-0.00054503,-8.952e-05,0.0,0 STARLINK-4674,1 53591U 22104D   22333.91667824 -.00008952  00000-0 -54503-3 0  9994,2 53591  53.2155 212.3108 0001672  74.9411 202.4183 15.08840011  1307,6917.88,95.438,540.9019999999998,538.589,0.0
